[{"OBJECT_NAME":"GEESAT-1 01","OBJECT_ID":"2022-058A","EPOCH":"2026-03-09T21:10:33.686112","MEAN_MOTION":14.81032685,"ECCENTRICITY":0.00225533,"INCLINATION":49.9934,"RA_OF_ASC_NODE":300.9816,"ARG_OF_PERICENTER":241.5453,"MEAN_ANOMALY":118.3212,"EPHEMERIS_TYPE":0,"CLASSIFICATION_TYPE":"U","NORAD_CAT_ID":52785,"ELEMENT_SET_NO":999,"REV_AT_EPOCH":20521,"BSTAR":0.00032487917,"MEAN_MOTION_DOT":2.33e-5,"MEAN_MOTION_DDOT":0},{"OBJECT_NAME":"FOURIER","OBJECT_ID":"2025-185B","EPOCH":"2026-03-09T17:14:49.271712","MEAN_MOTION":14.77345087,"ECCENTRICITY":0.00115317,"INCLINATION":97.9632,"RA_OF_ASC_NODE":153.1639,"ARG_OF_PERICENTER":59.1676,"MEAN_ANOMALY":301.0667,"EPHEMERIS_TYPE":0,"CLASSIFICATION_TYPE":"U","NORAD_CAT_ID":65298,"ELEMENT_SET_NO":999,"REV_AT_EPOCH":2914,"BSTAR":0.0018015505,"MEAN_MOTION_DOT":0.00012782,"MEAN_MOTION_DDOT":0}]
